{"type":"FeatureCollection","features":[{"type":"Feature","id":"osm_way_234739309","properties":{"subtype":"lake","class":"water","is_salt":false},"geometry":{"type":"Polygon","coordinates":[[[113.9294802,22.5333408],[113.9294066,22.5333188],[113.9292609,22.5332938],[113.9289743,22.5332123],[113.9287463,22.5331267],[113.9286702,22.5330858],[113.9284077,22.5330759],[113.9282421,22.5330814],[113.9280564,22.5331079],[113.9278126,22.5331656],[113.9277053,22.5332845],[113.927682,22.5334265],[113.9277047,22.5335235],[113.9277648,22.5335956],[113.9278341,22.5336412],[113.9280691,22.5337459],[113.9280997,22.5337355],[113.928132,22.5337309],[113.9281784,22.533735],[113.9282067,22.5337439],[113.9282328,22.5337576],[113.9282579,22.5337775],[113.9282781,22.5338017],[113.9282924,22.5338289],[113.9283005,22.5338581],[113.9283008,22.5339012],[113.9282885,22.5339413],[113.9285059,22.5341005],[113.9286433,22.5341722],[113.9287666,22.5342017],[113.9290501,22.5342414],[113.9293178,22.5342942],[113.9295151654321,22.53431069757063],[113.9295151654321,22.533726979390337],[113.9295075,22.5337222],[113.9292452,22.5335735],[113.9291721,22.5336042],[113.9291138,22.5335766],[113.9290266,22.5335046],[113.9288426,22.533443],[113.9288063,22.5333774],[113.9288446,22.5332783],[113.9288885,22.5332625],[113.9289566,22.5332801],[113.9290146,22.5333034],[113.9290458,22.5333167],[113.9291146,22.5333404],[113.9292627,22.5333907],[113.9293115,22.5334286],[113.9293472,22.5335058],[113.9293549,22.5335676],[113.9295151654321,22.53366239451334],[113.9295151654321,22.53337609451851],[113.9294802,22.5333408]]]}},{"type":"Feature","id":"osm_way_235113252","properties":{"subtype":"reflecting_pool","class":"water","is_salt":false},"geometry":{"type":"Polygon","coordinates":[[[113.9287235,22.5221771],[113.9287481,22.5221997],[113.9287686,22.5222257],[113.9287858,22.5222574],[113.9287967,22.5222914],[113.9288011,22.5223313],[113.928797,22.5223713],[113.9287861,22.5224059],[113.9287673,22.5224403],[113.9287437,22.5224689],[113.9289507,22.5224539],[113.9289846,22.5223928],[113.9292032,22.5223921],[113.9292187,22.5223634],[113.9295151654321,22.522369300190817],[113.9295151654321,22.522094405562846],[113.9287235,22.5221771]]]}},{"type":"Feature","id":"osm_way_263068317","properties":{"subtype":"water","class":"water","is_salt":false},"geometry":{"type":"Polygon","coordinates":[[[113.9251446,22.5332579],[113.9251821,22.5332703],[113.9252197,22.5332679],[113.9252438,22.5332381],[113.9252492,22.533196],[113.9252465,22.5331688],[113.9251526,22.5330226],[113.9251258,22.5330102],[113.9250909,22.5330176],[113.9250748,22.5330449],[113.9250534,22.5330672],[113.9250158,22.5330672],[113.9249944,22.533087],[113.9249971,22.5331217],[113.9250158,22.5331365],[113.9250588,22.5331365],[113.9250909,22.5331489],[113.9251124,22.5331712],[113.9251151,22.5332134],[113.9251285,22.5332356],[113.9251446,22.5332579]]]}},{"type":"Feature","id":"osm_way_513502384","properties":{"subtype":"water","class":"water","is_salt":false},"geometry":{"type":"Polygon","coordinates":[[[113.9214143,22.5239397],[113.9214088,22.5239504],[113.9214023,22.5239659],[113.9214015,22.5239811],[113.9214062,22.5239926],[113.9214163,22.5240002],[113.921425,22.5240064],[113.9214395,22.5240108],[113.9214493,22.524007],[113.9214577,22.5239949],[113.9214664,22.5239905],[113.9214765,22.5239896],[113.921493,22.5239939],[113.9215086,22.5240031],[113.9215225,22.524024],[113.9215288,22.5240317],[113.9215392,22.5240394],[113.9215544,22.5240406],[113.9215724,22.5240368],[113.9215877,22.5240342],[113.9216002,22.524024],[113.9216085,22.5240138],[113.921614,22.5239997],[113.9216126,22.5239869],[113.9216057,22.5239676],[113.9216016,22.5239536],[113.9215988,22.5239318],[113.9216016,22.523919],[113.9216057,22.5239075],[113.9216168,22.5238972],[113.9216237,22.5238844],[113.9216265,22.5238665],[113.9216279,22.5238549],[113.9216251,22.5238409],[113.9216196,22.5238242],[113.9216071,22.5238127],[113.9215905,22.5238088],[113.9215683,22.5238088],[113.9215503,22.523805],[113.9215364,22.5237986],[113.9215308,22.5237858],[113.9215281,22.5237717],[113.9215239,22.5237563],[113.9215184,22.5237384],[113.92151,22.5237218],[113.921499,22.5237128],[113.9214768,22.5237077],[113.9214587,22.5237089],[113.9214407,22.5237089],[113.9214199,22.5237192],[113.9214102,22.523732],[113.9214033,22.5237448],[113.9214019,22.5237615],[113.9214074,22.5237794],[113.9214158,22.5237973],[113.9214241,22.5238191],[113.9214282,22.5238409],[113.9214324,22.5238588],[113.921431,22.5238793],[113.9214282,22.5238959],[113.9214241,22.5239151],[113.9214192,22.5239279],[113.9214143,22.5239397]]]}},{"type":"Feature","id":"osm_way_775709449","properties":{"subtype":"water","class":"water","is_salt":false},"geometry":{"type":"Polygon","coordinates":[[[113.9285111,22.5202158],[113.9285058,22.5201728],[113.9283619,22.5201878],[113.9283672,22.5202308],[113.9285111,22.5202158]]]}},{"type":"Feature","id":"osm_way_775709450","properties":{"subtype":"water","class":"water","is_salt":false},"geometry":{"type":"Polygon","coordinates":[[[113.9281363,22.5198891],[113.9281893,22.5198804],[113.9282268,22.5198804],[113.9282603,22.5198835],[113.9282905,22.519891],[113.9282576,22.5199046],[113.9282255,22.519917],[113.9281966,22.5199349],[113.9281758,22.5199554],[113.9281665,22.5199733],[113.9281612,22.5199882],[113.9282013,22.519974],[113.9282362,22.5199616],[113.9282751,22.5199535],[113.92832,22.5199467],[113.9285198,22.5199337],[113.9285695,22.5199281],[113.928609,22.5199195],[113.9286399,22.5199089],[113.9287016,22.5198767],[113.9285715,22.519871],[113.9285035,22.5198715],[113.9284368,22.5198745],[113.928478,22.5198561],[113.9285167,22.519845],[113.9285538,22.5198396],[113.9285958,22.5198365],[113.9286416,22.5198358],[113.9287532,22.5198402],[113.9287921,22.5198197],[113.9288404,22.5197931],[113.9288786,22.5197733],[113.9289289,22.5197541],[113.9289993,22.5197417],[113.9292152,22.5197231],[113.9292139,22.5196859],[113.9293949,22.519668],[113.9293942,22.5195113],[113.9293419,22.5195181],[113.929299,22.519528],[113.9292729,22.5195385],[113.9292501,22.519554],[113.9292346,22.5195689],[113.9292239,22.5195899],[113.9292172,22.5196079],[113.9292085,22.5196265],[113.9291897,22.5196438],[113.9291676,22.519655],[113.9291398,22.5196593],[113.9284545,22.5197423],[113.9283499,22.5197684],[113.9282439,22.5198018],[113.9281823,22.5198266],[113.928142,22.5198489],[113.9281112,22.5198786],[113.9280919,22.519904],[113.9281363,22.5198891]]]}},{"type":"Feature","id":"osm_way_1344496580","properties":{"subtype":"pond","class":"water","is_salt":false},"geometry":{"type":"Polygon","coordinates":[[[113.9250869,22.5245358],[113.9251132,22.5245433],[113.9251291,22.5245649],[113.9251225,22.5245943],[113.9251235,22.5246124],[113.9251609,22.5246237],[113.9251731,22.5246453],[113.9251918,22.524647],[113.9252161,22.5246332],[113.9252395,22.5246375],[113.9252554,22.5246375],[113.925261,22.5246185],[113.9252619,22.5245908],[113.9252862,22.5245762],[113.9252797,22.5245537],[113.9252769,22.5245356],[113.9252984,22.5245209],[113.9253433,22.524526],[113.9253592,22.5245468],[113.9253798,22.5245494],[113.9254004,22.5245364],[113.9254303,22.5245347],[113.9254396,22.5245226],[113.9254312,22.5245122],[113.9254116,22.5245088],[113.9254097,22.5244975],[113.9254157,22.5244841],[113.9253979,22.5244873],[113.9253938,22.524488],[113.925377,22.5244241],[113.9253929,22.5244189],[113.9254069,22.5243947],[113.9254275,22.524393],[113.9254378,22.5243956],[113.9254555,22.5244059],[113.9254758,22.5244001],[113.925463,22.5243481],[113.9254443,22.5243627],[113.9254322,22.5243809],[113.9254069,22.5243826],[113.9253854,22.5243939],[113.9253826,22.5244051],[113.925362,22.5244198],[113.9253414,22.5244215],[113.925319,22.5244275],[113.9253134,22.5244396],[113.9252993,22.5244491],[113.9253031,22.5244621],[113.925289,22.524469],[113.9252797,22.5244578],[113.9252797,22.5244483],[113.925261,22.5244543],[113.9252469,22.5244682],[113.9252516,22.5244811],[113.9252367,22.524488],[113.9252189,22.5244759],[113.9252123,22.5244543],[113.925218,22.5244301],[113.9252142,22.5244111],[113.9252376,22.5243982],[113.9252423,22.5243852],[113.9252161,22.524374],[113.9252039,22.5243558],[113.9251955,22.5243411],[113.9251665,22.5243411],[113.9251422,22.5243325],[113.9251151,22.5242979],[113.925101,22.5242634],[113.9250833,22.524221],[113.9250851,22.5241899],[113.925073,22.524183],[113.925072,22.5241709],[113.9250449,22.5241658],[113.9250159,22.5241865],[113.9249869,22.5241796],[113.924971,22.5241727],[113.9249701,22.5241493],[113.9249654,22.5241407],[113.9249701,22.5241269],[113.9249598,22.5241113],[113.9249551,22.5240932],[113.9249467,22.5240785],[113.9249383,22.5240387],[113.9249439,22.5240171],[113.9249289,22.5240068],[113.924914,22.5240258],[113.9248915,22.5240189],[113.9248887,22.5240336],[113.9249168,22.5240431],[113.9249158,22.5240543],[113.9249327,22.5240638],[113.9249233,22.5240785],[113.9249196,22.5240914],[113.9249186,22.5241035],[113.9249327,22.5241096],[113.924943,22.5241225],[113.9249392,22.5241407],[113.9249242,22.5241398],[113.9249247,22.5241607],[113.924899,22.5241735],[113.924899,22.5241891],[113.924914,22.5242046],[113.9249411,22.5242167],[113.9249635,22.5242107],[113.9249607,22.524196],[113.9249766,22.5242038],[113.924986,22.5241934],[113.9250047,22.5241986],[113.9250225,22.5241977],[113.9250543,22.5242012],[113.9250674,22.5242124],[113.9250683,22.5242262],[113.9250692,22.5242418],[113.9250898,22.5242642],[113.9250964,22.5242928],[113.9251076,22.5243049],[113.9251123,22.5243204],[113.9251244,22.5243403],[113.9251422,22.5243507],[113.9251562,22.5243507],[113.9251852,22.5243602],[113.9251908,22.5243705],[113.9251824,22.5243774],[113.9251656,22.5243861],[113.9251506,22.5243809],[113.9251338,22.5243843],[113.9251319,22.524393],[113.9251431,22.5243956],[113.9251459,22.5244137],[113.9251665,22.524418],[113.9251693,22.5244362],[113.9251534,22.5244509],[113.9251272,22.5244682],[113.9251132,22.5244906],[113.9251235,22.5244975],[113.9251254,22.5245157],[113.9251459,22.5245226],[113.9251375,22.5245381],[113.9251094,22.5245286],[113.9251001,22.5245148],[113.9250833,22.5245131],[113.9250795,22.524501],[113.9250758,22.5244915],[113.9250496,22.5245044],[113.9250533,22.52452],[113.9250739,22.5245321],[113.9250869,22.5245358]]]}},{"type":"Feature","id":"osm_relation_3085354","properties":{"subtype":"lake","class":"water","is_salt":false},"geometry":{"type":"Polygon","coordinates":[[[113.9257969,22.5317168],[113.9257466,22.5318789],[113.9260799,22.5324442],[113.9261055,22.5324324],[113.9262072,22.5326191],[113.9262336,22.5326089],[113.9263153,22.5327707],[113.92641,22.5327331],[113.926419,22.5327314],[113.9264245,22.5327328],[113.9264267,22.5327339],[113.9264578,22.5327864],[113.9266318,22.5331225],[113.9267114,22.5331483],[113.9267789,22.5331843],[113.926835,22.5332264],[113.9269268,22.5332464],[113.927136,22.5331425],[113.9270858,22.5331082],[113.9270526,22.5330709],[113.9270567,22.5330326],[113.9270893,22.5330042],[113.9271384,22.5330017],[113.9271879,22.5330159],[113.9272262,22.5330608],[113.9272536,22.5330932],[113.9273506,22.5330284],[113.9274231,22.5327243],[113.9274042,22.5326884],[113.9273734,22.5326592],[113.9270607,22.5324721],[113.9259719,22.5316063],[113.9258915,22.5315915],[113.9257969,22.5317168]]]}}]}